BEESAT-4                
1 41619U 16040W   22365.10436345  .00032589  00000+0  86218-3 0  9990
2 41619  97.1907  50.9981 0008970 123.5621 236.6482 15.38287403350877
CAS-2T & KS-1Q          
1 41847U 16066G   22365.43068569  .00000937  00000+0  15036-3 0  9998
2 41847  98.5282  69.6840 0361944 340.5659  18.2019 14.38985917322678
NAYIF-1 (EO-88)         
1 42017U 17008BX  22365.15579474  .00042911  00000+0  95709-3 0  9999
2 42017  97.2443  69.1444 0002659 255.8233 104.2720 15.43445347327315
ZHUHAI-1 02 (CAS-4B)    
1 42759U 17034B   22365.35962466  .00006662  00000+0  37508-3 0  9996
2 42759  43.0187 326.0813 0008896  92.8187  38.4024 15.13733774306170
ZHUHAI-1 01 (CAS-4A)    
1 42761U 17034D   22365.38565447  .00006574  00000+0  36922-3 0  9991
2 42761  43.0182 324.5773 0009221  95.6533  45.3562 15.13835497306185
MAX VALIER SAT          
1 42778U 17036P   22365.35282938  .00017335  00000+0  57917-3 0  9993
2 42778  97.1822  39.8722 0009605 355.5505   4.5649 15.31035227306981
RADFXSAT (FOX-1B)       
1 43017U 17073E   22365.23546722  .00008154  00000+0  60065-3 0  9999
2 43017  97.6524 251.3041 0241239 262.5549  94.8199 14.83169759276266
FOX-1D (AO-92)          
1 43137U 18004AC  22365.16326452  .00021582  00000+0  65057-3 0  9991
2 43137  97.3505  78.9138 0007729  32.5624 327.6095 15.34302175276459
DIWATA-2B               
1 43678U 18084H   22365.64218013  .00001152  00000+0  11763-3 0  9991
2 43678  97.9960 141.6158 0009869   3.8475 356.2776 14.92595137227266
ES'HAIL 2               
1 43700U 18090A   22365.51384410  .00000151  00000+0  00000+0 0  9991
2 43700   0.0230  19.2169 0001707 292.0098 359.4474  1.00270215 15004
FOX-1CLIFF (AO-95)      
1 43770U 18099N   22365.44947661  .00004667  00000+0  40383-3 0  9990
2 43770  97.5977  66.5543 0012926 340.4165  19.6560 14.97574649222480
ITASAT 1                
1 43786U 18099AE  22365.43222740  .00003455  00000+0  30023-3 0  9994
2 43786  97.6007  67.5502 0014072 330.9895  29.0544 14.97566728222527
JY1SAT (JO-97)          
1 43803U 18099AX  22365.43703110  .00004793  00000+0  40654-3 0  9996
2 43803  97.5965  67.3951 0013755 328.3319  31.7075 14.98326314222552
UWE-4                   
1 43880U 18111E   22365.15652898  .00006580  00000+0  53935-3 0  9993
2 43880  97.6592 268.0284 0013141  33.6446 326.5609 14.99527717219161
NEXUS (FO-99)           
1 43937U 19003F   22365.52592821  .00023492  00000+0  65094-3 0  9997
2 43937  97.1112  31.6825 0018135 160.6207 199.5731 15.36788481220172
PSAT2 (NO-104)          
1 44354U 19036R   22364.96918470  .00262339  14086-4  97788-3 0  9990
2 44354  28.5167 227.7196 0117341  71.2311 290.0988 15.76479572195270
JAISAT-1                
1 44419U 19038F   22365.46787268  .00015234  00000+0  68022-3 0  9994
2 44419  97.6597 337.9425 0017896 162.7231 197.4617 15.21315012192966
DUCHIFAT-3              
1 44854U 19089C   22365.40054867  .00005547  00000+0  41220-3 0  9996
2 44854  36.9662  11.4694 0006799  16.3282 121.4802 15.02782754167550
CAS-6 (TIANQIN 1)       
1 44881U 19093C   22365.48025912  .00000804  00000+0  10786-3 0  9992
2 44881  97.8783  81.7292 0013497 264.7574  95.2112 14.82001035163955
RS-44 & BREEZE-KM R/B   
1 44909U 19096E   22365.52229132  .00000001  00000+0 -36310-4 0  9993
2 44909  82.5217  99.3610 0216977 218.7325 139.8050 12.79717359140711
ORBITAL FACTORY 2 (OF-2)
1 45113U 19071C   22365.43429760  .00092486  00000+0  10211-2 0  9990
2 45113  51.6317 160.8216 0009167 193.2449 166.8305 15.62249453163963
HUSKYSAT-1 (HO-107)     
1 45119U 19071J   22365.16179904  .00073271  00000+0  93983-3 0  9997
2 45119  51.6321 164.9672 0009275 184.0080 176.0839 15.58429105163878
BY70-2                  
1 45857U 20042B   22365.49276194  .00010684  00000+0  13209-2 0  9992
2 45857  97.9416  80.6872 0010067 190.1031 170.0020 14.82928755134624
SALSAT                  
1 46495U 20068K   22365.56647809  .00004154  00000+0  29175-3 0  9997
2 46495  97.7522 307.2679 0015353 336.1769  23.8745 15.05605034123833
BY70-3                  
1 46839U 20079N   22365.50135743  .00061169  00000+0  89196-3 0  9992
2 46839  97.1758  76.2417 0003708 346.1113  69.5379 15.55491861120718
RADFXSAT-2 (AO-109)     
1 47311U 21002C   22365.49079846  .00016900  00000+0  58294-3 0  9992
2 47311  60.6845 338.5195 0038880  91.0218 269.5327 15.29447699108558
UVSQ-SAT                
1 47438U 21006AB  22365.12484875  .00012983  00000+0  63149-3 0  9990
2 47438  97.4124  60.1330 0010142 317.4400  42.6048 15.18489513107091
DIY-1 (ARDUIQUBE)       
1 47963U 21022AH  22364.98413653  .00047395  00000+0  20467-2 0  9990
2 47963  97.5167 264.8596 0013686 162.2890 197.8825 15.22258747 96747
XW-3 (CAS-9)            
1 50466U 21131B   22365.56888139  .00000375  00000+0  13711-3 0  9995
2 50466  98.5668  82.5886 0003497 280.2089  79.8703 14.38607432 53251
TEVEL-3                 
1 50988U 22002E   22365.62663659  .00011482  00000+0  57102-3 0  9990
2 50988  97.4587  69.4461 0010394  98.2721  61.3048 15.17741213 53280
TEVEL-8                 
1 50989U 22002F   22365.63814334  .00011581  00000+0  57685-3 0  9996
2 50989  97.4600  69.4983 0010184  96.3763  59.9472 15.17685493 53289
TEVEL-5                 
1 50998U 22002Q   22365.57171413  .00011989  00000+0  58621-3 0  9996
2 50998  97.4576  69.6174 0011902  95.1644  13.5809 15.18309004 53292
TEVEL-6                 
1 50999U 22002R   22365.64494669  .00012065  00000+0  58975-3 0  9994
2 50999  97.4579  69.6859 0011766  94.4432  59.9419 15.18318441 53309
TEVEL-1                 
1 51013U 22002AF  22365.63204462  .00011514  00000+0  57307-3 0  9997
2 51013  97.4583  69.4156 0010394  99.3016  58.4046 15.17711380 53283
TEVEL-7                 
1 51062U 22002CG  22365.64004964  .00011641  00000+0  57978-3 0  9992
2 51062  97.4594  69.4793 0010236  96.6456  58.8942 15.17686672 53283
TEVEL-4                 
1 51063U 22002CH  22365.64201001  .00011663  00000+0  58121-3 0  9999
2 51063  97.4598  69.4749 0010441  97.5164  57.4280 15.17666793 53285
TEVEL-2                 
1 51069U 22002CP  22365.62829184  .00011582  00000+0  57605-3 0  9997
2 51069  97.4579  69.4265 0010268  98.4809  60.1832 15.17738563 53285
GREENCUBE               
1 53106U 22080B   22354.08419093 -.00000003  00000+0  00000+0 0  9999
2 53106  70.1702  21.9397 0008914 226.9685 182.2049  6.42557326 10248
YUZGU 9 (RS3S)          
1 53308U 98067TT  22365.53990320  .00256151  00000+0  13908-2 0  9990
2 53308  51.6336  66.9053 0005921 340.7196  19.3580 15.78701845 25493
YUZGU 7 (RS1S)          
1 53309U 98067TU  22365.37601167  .00281016  00000+0  14378-2 0  9991
2 53309  51.6323  67.2979 0006579 341.4365  18.6395 15.79939527 25427
YUZGU 11 (RS5S)         
1 53310U 98067TV  22365.22096387  .00275034  00000+0  14885-2 0  9995
2 53310  51.6344  68.5258 0006032 336.7536  23.3191 15.78720167 25421
YUZGU 12 (RS6S)         
1 53311U 98067TW  22365.58882347  .00297426  00000+0  14131-2 0  9997
2 53311  51.6306  65.7115 0006251 347.0240  13.0601 15.81510851 25514
TSIOLKOVSKY-RYAZAN 1 (*)
1 53312U 98067TX  22365.32205148  .00275002  00000+0  14437-2 0  9993
2 53312  51.6306  67.6960 0006778 339.0719  21.0004 15.79388290 25401
TSIOLKOVSKY-RYAZAN 2 (*)
1 53313U 98067TY  22365.56837802  .00265279  00000+0  13779-2 0  9991
2 53313  51.6333  66.3444 0006554 344.6763  15.4039 15.79651745 25490
YUZGU 10 (RS4S)         
1 53321U 98067TZ  22365.58655154  .00257172  00000+0  13670-2 0  9993
2 53321  51.6343  66.4648 0006004 340.3858  19.6912 15.79169043 25496
RS29S (SXC3-2110 CYCLO*)
1 53373U 22096D   22365.45168977  .00017145  00000+0  62654-3 0  9998
2 53373  97.4282 266.0729 0003251  59.8482  56.1753 15.28155098 21985
RS32S (SXC3-212 MONITO*)
1 53374U 22096E   22365.44384140  .00015235  00000+0  55762-3 0  9990
2 53374  97.4278 266.0767 0002938  57.6155  60.1301 15.28130127 21987
RS34S (SXC3-218 KUZBAS*)
1 53375U 22096F   22365.65145631  .00013669  00000+0  50828-3 0  9991
2 53375  97.4280 266.2422 0003091  51.5236  15.5903 15.27633508 22012
RS23S (SXC3-21 UTMN)    
1 53376U 22096G   22365.45891826  .00014171  00000+0  52499-3 0  9999
2 53376  97.4280 266.0621 0002969  58.3133  57.0207 15.27749164 21985
RS28S (SXC3-214 MIET-A*)
1 53377U 22096H   22365.45974642  .00013407  00000+0  49852-3 0  9998
2 53377  97.4282 266.0631 0003012  54.8582  59.6938 15.27639592 21980
RS26S (KAI-1)           
1 53378U 22096J   22365.59704444  .00011938  00000+0  44793-3 0  9991
2 53378  97.4281 266.1750 0002862  45.9361  52.0517 15.27368605 22009
RS19S (SXC3-219 ISOI)   
1 53381U 22096M   22365.60565244  .00013921  00000+0  50916-3 0  9998
2 53381  97.4270 266.3094 0002870 327.9897 116.1973 15.28176403 22013
RS21S (CUBESX-HSE-2)    
1 53383U 22096P   22365.41285123  .00014047  00000+0  51271-3 0  9999
2 53383  97.4277 266.1298 0003014 327.0282 160.7331 15.28242595 21980
RS30S (SXC3-217 SIREN)  
1 53384U 22096Q   22365.60200597  .00013161  00000+0  48400-3 0  9999
2 53384  97.4275 266.3015 0002953 324.4101  85.7725 15.28007937 22017
RS20S (GEOSCAN-EDELVEIS)
1 53385U 22096R   22365.61336993  .00017918  00000+0  63455-3 0  9992
2 53385  97.4278 266.4322 0003280 325.3113  79.2533 15.29177707 22053
RS33S (SXC3-215 VIZARD) 
1 53386U 22096S   22365.57672663  .00021114  00000+0  72543-3 0  9996
2 53386  97.4273 266.5127 0004043 322.2678 160.2959 15.30128960 22044
CAS-5A (FO-118)         
1 54684U 22167C   22365.61798023  .00007627  00000+0  48448-3 0  9991
2 54684  97.5382 140.2242 0014425 187.1267 272.3743 15.09048994  3365
CAS-10                  
1 54816U 21035C   22365.61459500  .00108300  00000+0  11539-2 0  9995
2 54816  41.4769  96.9194 0008337 285.5595  74.4324 15.62815285  1991
